{"type": "FeatureCollection", "features": [{"type": "Feature", "properties": {"norad_id": 32275, "name": "COSMOS 2433 (720)", "group": "glo-ops", "lat": -64.24492695253551, "lon": -107.54203012055902, "alt_km": 19123.81527629001, "timestamp": "2025-12-17T04:57:44.628423+00:00", "meta": {"OBJECT_NAME": "COSMOS 2433 (720)", "OBJECT_ID": "2007-052A", "EPOCH": "2025-12-14T23:11:38.718240", "MEAN_MOTION": 2.13103955, "ECCENTRICITY": 0.00054201, "INCLINATION": 65.6819, "RA_OF_ASC_NODE": 322.1305, "ARG_OF_PERICENTER": 253.5649, "MEAN_ANOMALY": 106.3736, "EPHEMERIS_TYPE": 0, "CLASSIFICATION_TYPE": "U", "NORAD_CAT_ID": 32275, "ELEMENT_SET_NO": 999, "REV_AT_EPOCH": 14113, "BSTAR": 0, "MEAN_MOTION_DOT": -6.5e-07, "MEAN_MOTION_DDOT": 0}, "tle": {"line1": "1 32275U 07052A   25348.96642035 -.00000065  00000+0  00000+0 0  9990", "line2": "2 32275  65.6819 322.1305 0005420 253.5649 106.3736  2.13103955141132"}}, "geometry": {"type": "Point", "coordinates": [-107.54203012055902, -64.24492695253551]}}, {"type": "Feature", "properties": {"norad_id": 32276, "name": "COSMOS 2432 (719)", "group": "glo-ops", "lat": -38.46140503030377, "lon": 163.19899408540186, "alt_km": 19134.343576523574, "timestamp": "2025-12-17T04:57:44.628445+00:00", "meta": {"OBJECT_NAME": "COSMOS 2432 (719)", "OBJECT_ID": "2007-052B", "EPOCH": "2025-12-15T06:31:38.583840", "MEAN_MOTION": 2.13103103, "ECCENTRICITY": 0.00112605, "INCLINATION": 65.6973, "RA_OF_ASC_NODE": 322.2446, "ARG_OF_PERICENTER": 312.4858, "MEAN_ANOMALY": 226.3212, "EPHEMERIS_TYPE": 0, "CLASSIFICATION_TYPE": "U", "NORAD_CAT_ID": 32276, "ELEMENT_SET_NO": 999, "REV_AT_EPOCH": 14116, "BSTAR": 0, "MEAN_MOTION_DOT": -6.6e-07, "MEAN_MOTION_DDOT": 0}, "tle": {"line1": "1 32276U 07052B   25349.27197435 -.00000066  00000+0  00000+0 0  9996", "line2": "2 32276  65.6973 322.2446 0011260 312.4858 226.3212  2.13103103141167"}}, "geometry": {"type": "Point", "coordinates": [163.19899408540186, -38.46140503030377]}}, {"type": "Feature", "properties": {"norad_id": 32393, "name": "COSMOS 2434 (721)", "group": "glo-ops", "lat": 9.624259522779624, "lon": 13.374144735735241, "alt_km": 19130.749040560775, "timestamp": "2025-12-17T04:57:44.628457+00:00", "meta": {"OBJECT_NAME": "COSMOS 2434 (721)", "OBJECT_ID": "2007-065A", "EPOCH": "2025-12-15T08:26:38.759136", "MEAN_MOTION": 2.13101367, "ECCENTRICITY": 0.00044341, "INCLINATION": 64.3148, "RA_OF_ASC_NODE": 198.1152, "ARG_OF_PERICENTER": 71.4602, "MEAN_ANOMALY": 114.7825, "EPHEMERIS_TYPE": 0, "CLASSIFICATION_TYPE": "U", "NORAD_CAT_ID": 32393, "ELEMENT_SET_NO": 999, "REV_AT_EPOCH": 13985, "BSTAR": 0, "MEAN_MOTION_DOT": 1.05e-06, "MEAN_MOTION_DDOT": 0}, "tle": {"line1": "1 32393U 07065A   25349.35183749  .00000105  00000+0  00000+0 0  9995", "line2": "2 32393  64.3148 198.1152 0004434  71.4602 114.7825  2.13101367139858"}}, "geometry": {"type": "Point", "coordinates": [13.374144735735241, 9.624259522779624]}}, {"type": "Feature", "properties": {"norad_id": 32395, "name": "COSMOS 2436 (723)", "group": "glo-ops", "lat": -49.777111030075524, "lon": 163.45118838280447, "alt_km": 19118.160953881554, "timestamp": "2025-12-17T04:57:44.628468+00:00", "meta": {"OBJECT_NAME": "COSMOS 2436 (723)", "OBJECT_ID": "2007-065C", "EPOCH": "2025-12-16T08:11:52.503360", "MEAN_MOTION": 2.13100112, "ECCENTRICITY": 0.00177699, "INCLINATION": 64.3235, "RA_OF_ASC_NODE": 198.1521, "ARG_OF_PERICENTER": 9.2217, "MEAN_ANOMALY": 349.3751, "EPHEMERIS_TYPE": 0, "CLASSIFICATION_TYPE": "U", "NORAD_CAT_ID": 32395, "ELEMENT_SET_NO": 999, "REV_AT_EPOCH": 13982, "BSTAR": 0, "MEAN_MOTION_DOT": 1.1e-06, "MEAN_MOTION_DDOT": 0}, "tle": {"line1": "1 32395U 07065C   25350.34157990  .00000110  00000+0  00000+0 0  9993", "line2": "2 32395  64.3235 198.1521 0017769   9.2217 349.3751  2.13100112139821"}}, "geometry": {"type": "Point", "coordinates": [163.45118838280447, -49.777111030075524]}}, {"type": "Feature", "properties": {"norad_id": 36111, "name": "COSMOS 2456 (730)", "group": "glo-ops", "lat": -30.095611795205624, "lon": 61.45938783617026, "alt_km": 19126.881315488605, "timestamp": "2025-12-17T04:57:44.628479+00:00", "meta": {"OBJECT_NAME": "COSMOS 2456 (730)", "OBJECT_ID": "2009-070A", "EPOCH": "2025-12-16T18:51:14.484384", "MEAN_MOTION": 2.13103663, "ECCENTRICITY": 0.00031018, "INCLINATION": 64.903, "RA_OF_ASC_NODE": 77.1993, "ARG_OF_PERICENTER": 298.2452, "MEAN_ANOMALY": 65.0199, "EPHEMERIS_TYPE": 0, "CLASSIFICATION_TYPE": "U", "NORAD_CAT_ID": 36111, "ELEMENT_SET_NO": 999, "REV_AT_EPOCH": 12454, "BSTAR": 0, "MEAN_MOTION_DOT": -5.4e-07, "MEAN_MOTION_DDOT": 0}, "tle": {"line1": "1 36111U 09070A   25350.78558431 -.00000054  00000+0  00000+0 0  9992", "line2": "2 36111  64.9030  77.1993 0003101 298.2452  65.0199  2.13103663124540"}}, "geometry": {"type": "Point", "coordinates": [61.45938783617026, -30.095611795205624]}}, {"type": "Feature", "properties": {"norad_id": 36112, "name": "COSMOS 2457 (733)", "group": "glo-ops", "lat": 64.36504311881303, "lon": 179.7087053921317, "alt_km": 19117.89210447593, "timestamp": "2025-12-17T04:57:44.628490+00:00", "meta": {"OBJECT_NAME": "COSMOS 2457 (733)", "OBJECT_ID": "2009-070B", "EPOCH": "2025-12-15T22:24:14.107104", "MEAN_MOTION": 2.13100894, "ECCENTRICITY": 0.00046417, "INCLINATION": 64.8877, "RA_OF_ASC_NODE": 77.076, "ARG_OF_PERICENTER": 159.3644, "MEAN_ANOMALY": 39.3126, "EPHEMERIS_TYPE": 0, "CLASSIFICATION_TYPE": "U", "NORAD_CAT_ID": 36112, "ELEMENT_SET_NO": 999, "REV_AT_EPOCH": 12452, "BSTAR": 0, "MEAN_MOTION_DOT": -5.8e-07, "MEAN_MOTION_DDOT": 0}, "tle": {"line1": "1 36112U 09070B   25349.93349661 -.00000058  00000+0  00000+0 0  9995", "line2": "2 36112  64.8877  77.0760 0004641 159.3644  39.3126  2.13100894124525"}}, "geometry": {"type": "Point", "coordinates": [179.7087053921317, 64.36504311881303]}}, {"type": "Feature", "properties": {"norad_id": 36402, "name": "COSMOS 2460 (732)", "group": "glo-ops", "lat": 65.02934914065939, "lon": 62.69210258429014, "alt_km": 19129.453680387498, "timestamp": "2025-12-17T04:57:44.628500+00:00", "meta": {"OBJECT_NAME": "COSMOS 2460 (732)", "OBJECT_ID": "2010-007C", "EPOCH": "2025-12-15T05:47:00.728160", "MEAN_MOTION": 2.13106127, "ECCENTRICITY": 0.00026664, "INCLINATION": 65.5278, "RA_OF_ASC_NODE": 320.6882, "ARG_OF_PERICENTER": 275.3459, "MEAN_ANOMALY": 111.58, "EPHEMERIS_TYPE": 0, "CLASSIFICATION_TYPE": "U", "NORAD_CAT_ID": 36402, "ELEMENT_SET_NO": 999, "REV_AT_EPOCH": 12281, "BSTAR": 0, "MEAN_MOTION_DOT": -6.7e-07, "MEAN_MOTION_DDOT": 0}, "tle": {"line1": "1 36402U 10007C   25349.24098065 -.00000067  00000+0  00000+0 0  9992", "line2": "2 36402  65.5278 320.6882 0002666 275.3459 111.5800  2.13106127122817"}}, "geometry": {"type": "Point", "coordinates": [62.69210258429014, 65.02934914065939]}}, {"type": "Feature", "properties": {"norad_id": 37867, "name": "COSMOS 2476 (744)", "group": "glo-ops", "lat": -47.80971492081979, "lon": -70.30474751207385, "alt_km": 19073.44160536843, "timestamp": "2025-12-17T04:57:44.628510+00:00", "meta": {"OBJECT_NAME": "COSMOS 2476 (744)", "OBJECT_ID": "2011-064A", "EPOCH": "2025-12-16T10:28:18.881760", "MEAN_MOTION": 2.13101449, "ECCENTRICITY": 0.00243502, "INCLINATION": 65.164, "RA_OF_ASC_NODE": 79.0464, "ARG_OF_PERICENTER": 234.7014, "MEAN_ANOMALY": 128.9307, "EPHEMERIS_TYPE": 0, "CLASSIFICATION_TYPE": "U", "NORAD_CAT_ID": 37867, "ELEMENT_SET_NO": 999, "REV_AT_EPOCH": 10987, "BSTAR": 0, "MEAN_MOTION_DOT": -5.4e-07, "MEAN_MOTION_DDOT": 0}, "tle": {"line1": "1 37867U 11064A   25350.43632965 -.00000054  00000+0  00000+0 0  9994", "line2": "2 37867  65.1640  79.0464 0024350 234.7014 128.9307  2.13101449109870"}}, "geometry": {"type": "Point", "coordinates": [-70.30474751207385, -47.80971492081979]}}, {"type": "Feature", "properties": {"norad_id": 37868, "name": "COSMOS 2477 (745)", "group": "glo-ops", "lat": 48.52605562629063, "lon": 110.63026160045662, "alt_km": 19178.23677966098, "timestamp": "2025-12-17T04:57:44.628520+00:00", "meta": {"OBJECT_NAME": "COSMOS 2477 (745)", "OBJECT_ID": "2011-064B", "EPOCH": "2025-12-15T06:06:12.573216", "MEAN_MOTION": 2.1310289, "ECCENTRICITY": 0.00211455, "INCLINATION": 65.1707, "RA_OF_ASC_NODE": 79.1637, "ARG_OF_PERICENTER": 234.5873, "MEAN_ANOMALY": 123.1925, "EPHEMERIS_TYPE": 0, "CLASSIFICATION_TYPE": "U", "NORAD_CAT_ID": 37868, "ELEMENT_SET_NO": 999, "REV_AT_EPOCH": 10983, "BSTAR": 0, "MEAN_MOTION_DOT": -5.6e-07, "MEAN_MOTION_DDOT": 0}, "tle": {"line1": "1 37868U 11064B   25349.25431219 -.00000056  00000+0  00000+0 0  9994", "line2": "2 37868  65.1707  79.1637 0021145 234.5873 123.1925  2.13102890109838"}}, "geometry": {"type": "Point", "coordinates": [110.63026160045662, 48.52605562629063]}}, {"type": "Feature", "properties": {"norad_id": 37869, "name": "COSMOS 2475 (743)", "group": "glo-ops", "lat": 10.698295952073508, "lon": 84.1328438867497, "alt_km": 19165.695701110235, "timestamp": "2025-12-17T04:57:44.628531+00:00", "meta": {"OBJECT_NAME": "COSMOS 2475 (743)", "OBJECT_ID": "2011-064C", "EPOCH": "2025-12-16T17:15:16.173216", "MEAN_MOTION": 2.1310159, "ECCENTRICITY": 0.00263578, "INCLINATION": 65.1784, "RA_OF_ASC_NODE": 79.1342, "ARG_OF_PERICENTER": 248.7608, "MEAN_ANOMALY": 108.5583, "EPHEMERIS_TYPE": 0, "CLASSIFICATION_TYPE": "U", "NORAD_CAT_ID": 37869, "ELEMENT_SET_NO": 999, "REV_AT_EPOCH": 10987, "BSTAR": 0, "MEAN_MOTION_DOT": -5.2e-07, "MEAN_MOTION_DDOT": 0}, "tle": {"line1": "1 37869U 11064C   25350.71893719 -.00000052  00000+0  00000+0 0  9991", "line2": "2 37869  65.1784  79.1342 0026357 248.7608 108.5583  2.13101590109877"}}, "geometry": {"type": "Point", "coordinates": [84.1328438867497, 10.698295952073508]}}]}